[{"OBJECT_NAME":"STARLINK-30140","OBJECT_ID":"2023-107B","EPOCH":"2026-03-09T22:00:01.999584","MEAN_MOTION":15.15183718,"ECCENTRICITY":0.00016562,"INCLINATION":42.9994,"RA_OF_ASC_NODE":337.4058,"ARG_OF_PERICENTER":269.4971,"MEAN_ANOMALY":11.6356,"EPHEMERIS_TYPE":0,"CLASSIFICATION_TYPE":"U","NORAD_CAT_ID":57458,"ELEMENT_SET_NO":999,"REV_AT_EPOCH":573,"BSTAR":0.002785435,"MEAN_MOTION_DOT":0.00053397,"MEAN_MOTION_DDOT":0},{"OBJECT_NAME":"GUANGCHUAN 02","OBJECT_ID":"2024-221B","EPOCH":"2026-03-09T22:15:41.335200","MEAN_MOTION":15.16931464,"ECCENTRICITY":0.00066009,"INCLINATION":49.9417,"RA_OF_ASC_NODE":285.1157,"ARG_OF_PERICENTER":306.8917,"MEAN_ANOMALY":53.1429,"EPHEMERIS_TYPE":0,"CLASSIFICATION_TYPE":"U","NORAD_CAT_ID":62112,"ELEMENT_SET_NO":999,"REV_AT_EPOCH":7113,"BSTAR":0.00030203163,"MEAN_MOTION_DOT":5.737e-5,"MEAN_MOTION_DDOT":0}]
